[{"OBJECT_NAME":"JILIN-1 08","OBJECT_ID":"2018-008F","EPOCH":"2026-03-09T22:37:53.184288","MEAN_MOTION":15.32205976,"ECCENTRICITY":0.00081321,"INCLINATION":97.1902,"RA_OF_ASC_NODE":90.9961,"ARG_OF_PERICENTER":76.0646,"MEAN_ANOMALY":284.15,"EPHEMERIS_TYPE":0,"CLASSIFICATION_TYPE":"U","NORAD_CAT_ID":43160,"ELEMENT_SET_NO":999,"REV_AT_EPOCH":44974,"BSTAR":0.00036689195,"MEAN_MOTION_DOT":0.00011349,"MEAN_MOTION_DDOT":0},{"OBJECT_NAME":"STARLINK-32145","OBJECT_ID":"2024-120V","EPOCH":"2026-03-09T22:01:00.909696","MEAN_MOTION":15.30188482,"ECCENTRICITY":9.504e-5,"INCLINATION":53.1598,"RA_OF_ASC_NODE":318.6783,"ARG_OF_PERICENTER":95.1366,"MEAN_ANOMALY":264.9743,"EPHEMERIS_TYPE":0,"CLASSIFICATION_TYPE":"U","NORAD_CAT_ID":60154,"ELEMENT_SET_NO":999,"REV_AT_EPOCH":9641,"BSTAR":5.1178291e-5,"MEAN_MOTION_DOT":1.157e-5,"MEAN_MOTION_DDOT":0}]
